start=new Date('2022-07-30T00:00:00.000Z').valueOf();
sats=[{"CENTER_NAME":"EARTH","RA_OF_ASC_NODE":"283.3755","EPHEMERIS_TYPE":"0","REF_FRAME":"TEME","TLE_LINE2":"2 48652  53.0549 283.3755 0001321  74.8861 285.2274 15.06397699 64888","ELEMENT_SET_NO":"999","DECAY_DATE":null,"RCS_SIZE":"LARGE","EPOCH":"2022-07-29T13:46:41.503872","OBJECT_NAME":"STARLINK-2727","COUNTRY_CODE":"US","FILE":"3524848","PERIAPSIS":"546.306","ECCENTRICITY":"0.00013210","SEMIMAJOR_AXIS":"6925.356","OBJECT_TYPE":"PAYLOAD","NORAD_CAT_ID":"48652","INCLINATION":"53.0549","CLASSIFICATION_TYPE":"U","MEAN_ANOMALY":"285.2274","TIME_SYSTEM":"UTC","BSTAR":"-0.00005279900000","MEAN_MOTION_DOT":"-0.00001068","REV_AT_EPOCH":"6488","SITE":"AFETR","MEAN_ELEMENT_THEORY":"SGP4","LAUNCH_DATE":"2021-05-26","GP_ID":"209131691","MEAN_MOTION":"15.06397699","MEAN_MOTION_DDOT":"0.0000000000000","OBJECT_ID":"2021-044Q","TLE_LINE1":"1 48652U 21044Q   22210.57409148 -.00001068  00000-0 -52799-4 0  9994","PERIOD":"95.592","ARG_OF_PERICENTER":"74.8861","APOAPSIS":"548.135"},{"FILE":"3524848","PERIAPSIS":"546.245","ECCENTRICITY":"0.00014080","COUNTRY_CODE":"US","CLASSIFICATION_TYPE":"U","INCLINATION":"53.0543","SEMIMAJOR_AXIS":"6925.355","OBJECT_TYPE":"PAYLOAD","NORAD_CAT_ID":"48653","MEAN_MOTION_DOT":"0.00000031","BSTAR":"0.00002094800000","TIME_SYSTEM":"UTC","MEAN_ANOMALY":"278.7598","MEAN_ELEMENT_THEORY":"SGP4","SITE":"AFETR","REV_AT_EPOCH":"6489","LAUNCH_DATE":"2021-05-26","GP_ID":"209131941","MEAN_MOTION_DDOT":"0.0000000000000","MEAN_MOTION":"15.06397879","OBJECT_ID":"2021-044R","ARG_OF_PERICENTER":"81.3551","APOAPSIS":"548.195","TLE_LINE1":"1 48653U 21044R   22210.63675733  .00000031  00000-0  20948-4 0  9995","PERIOD":"95.592","CENTER_NAME":"EARTH","EPHEMERIS_TYPE":"0","RA_OF_ASC_NODE":"283.0890","REF_FRAME":"TEME","TLE_LINE2":"2 48653  53.0543 283.0890 0001408  81.3551 278.7598 15.06397879 64892","ELEMENT_SET_NO":"999","DECAY_DATE":null,"EPOCH":"2022-07-29T15:16:55.833312","RCS_SIZE":"LARGE","OBJECT_NAME":"STARLINK-2720"},{"MEAN_MOTION_DDOT":"0.0000000000000","MEAN_MOTION":"15.06389653","GP_ID":"209132690","LAUNCH_DATE":"2021-05-26","APOAPSIS":"548.184","ARG_OF_PERICENTER":"94.1025","TLE_LINE1":"1 48654U 21044S   22210.63306299 -.00000141  00000-0  94183-5 0  9990","PERIOD":"95.593","OBJECT_ID":"2021-044S","INCLINATION":"53.0553","CLASSIFICATION_TYPE":"U","SEMIMAJOR_AXIS":"6925.380","OBJECT_TYPE":"PAYLOAD","NORAD_CAT_ID":"48654","PERIAPSIS":"546.306","FILE":"3524848","ECCENTRICITY":"0.00013560","COUNTRY_CODE":"US","SITE":"AFETR","MEAN_ELEMENT_THEORY":"SGP4","REV_AT_EPOCH":"6489","MEAN_MOTION_DOT":"-0.00000141","BSTAR":"0.00000941830000","MEAN_ANOMALY":"266.0119","TIME_SYSTEM":"UTC","DECAY_DATE":null,"ELEMENT_SET_NO":"999","OBJECT_NAME":"STARLINK-2651","EPOCH":"2022-07-29T15:11:36.642336","RCS_SIZE":"LARGE","EPHEMERIS_TYPE":"0","RA_OF_ASC_NODE":"283.1042","CENTER_NAME":"EARTH","TLE_LINE2":"2 48654  53.0553 283.1042 0001356  94.1025 266.0119 15.06389653 64894","REF_FRAME":"TEME"},{"LAUNCH_DATE":"2021-05-26","GP_ID":"209133425","MEAN_MOTION_DDOT":"0.0000000000000","MEAN_MOTION":"15.06396887","OBJECT_ID":"2021-044T","ARG_OF_PERICENTER":"66.4118","APOAPSIS":"548.252","PERIOD":"95.592","TLE_LINE1":"1 48655U 21044T   22210.62937542 -.00001695  00000-0 -94930-4 0  9996","PERIAPSIS":"546.194","FILE":"3524848","ECCENTRICITY":"0.00014860","COUNTRY_CODE":"US","INCLINATION":"53.0545","CLASSIFICATION_TYPE":"U","SEMIMAJOR_AXIS":"6925.358","OBJECT_TYPE":"PAYLOAD","NORAD_CAT_ID":"48655","MEAN_MOTION_DOT":"-0.00001695","BSTAR":"-0.00009493000000","MEAN_ANOMALY":"293.7027","TIME_SYSTEM":"UTC","SITE":"AFETR","MEAN_ELEMENT_THEORY":"SGP4","REV_AT_EPOCH":"6489","ELEMENT_SET_NO":"999","DECAY_DATE":null,"EPOCH":"2022-07-29T15:06:18.036288","RCS_SIZE":"LARGE","OBJECT_NAME":"STARLINK-2657","CENTER_NAME":"EARTH","EPHEMERIS_TYPE":"0","RA_OF_ASC_NODE":"283.1227","REF_FRAME":"TEME","TLE_LINE2":"2 48655  53.0545 283.1227 0001486  66.4118 293.7027 15.06396887 64892"},{"OBJECT_ID":"2021-044U","ARG_OF_PERICENTER":"77.3560","APOAPSIS":"548.156","PERIOD":"95.593","TLE_LINE1":"1 48656U 21044U   22210.62568767  .00000108  00000-0  26163-4 0  9995","LAUNCH_DATE":"2021-05-26","GP_ID":"209132191","MEAN_MOTION_DDOT":"0.0000000000000","MEAN_MOTION":"15.06392439","BSTAR":"0.00002616300000","MEAN_MOTION_DOT":"0.00000108","TIME_SYSTEM":"UTC","MEAN_ANOMALY":"282.7577","MEAN_ELEMENT_THEORY":"SGP4","SITE":"AFETR","REV_AT_EPOCH":"6489","ECCENTRICITY":"0.00013270","FILE":"3524848","PERIAPSIS":"546.318","COUNTRY_CODE":"US","CLASSIFICATION_TYPE":"U","INCLINATION":"53.0544","OBJECT_TYPE":"PAYLOAD","NORAD_CAT_ID":"48656","SEMIMAJOR_AXIS":"6925.372","EPOCH":"2022-07-29T15:00:59.414688","RCS_SIZE":"LARGE","OBJECT_NAME":"STARLINK-2701","ELEMENT_SET_NO":"999","DECAY_DATE":null,"REF_FRAME":"TEME","TLE_LINE2":"2 48656  53.0544 283.1409 0001327  77.3560 282.7577 15.06392439 64897","CENTER_NAME":"EARTH","EPHEMERIS_TYPE":"0","RA_OF_ASC_NODE":"283.1409"},{"OBJECT_ID":"2021-044V","PERIOD":"95.593","TLE_LINE1":"1 48657U 21044V   22210.62200591  .00000243  00000-0  35185-4 0  9998","APOAPSIS":"548.137","ARG_OF_PERICENTER":"83.0817","LAUNCH_DATE":"2021-05-26","GP_ID":"209132441","MEAN_MOTION":"15.06387588","MEAN_MOTION_DDOT":"0.0000000000000","TIME_SYSTEM":"UTC","MEAN_ANOMALY":"277.0318","MEAN_MOTION_DOT":"0.00000243","BSTAR":"0.00003518500000","REV_AT_EPOCH":"6489","MEAN_ELEMENT_THEORY":"SGP4","SITE":"AFETR","COUNTRY_CODE":"US","ECCENTRICITY":"0.00012780","FILE":"3524848","PERIAPSIS":"546.367","OBJECT_TYPE":"PAYLOAD","NORAD_CAT_ID":"48657","SEMIMAJOR_AXIS":"6925.387","CLASSIFICATION_TYPE":"U","INCLINATION":"53.0543","RCS_SIZE":"LARGE","EPOCH":"2022-07-29T14:55:41.310624","OBJECT_NAME":"STARLINK-2734","ELEMENT_SET_NO":"999","DECAY_DATE":null,"REF_FRAME":"TEME","TLE_LINE2":"2 48657  53.0543 283.1463 0001278  83.0817 277.0318 15.06387588 64890","CENTER_NAME":"EARTH","RA_OF_ASC_NODE":"283.1463","EPHEMERIS_TYPE":"0"},{"DECAY_DATE":null,"ELEMENT_SET_NO":"999","OBJECT_NAME":"STARLINK-2647","RCS_SIZE":"LARGE","EPOCH":"2022-07-29T14:50:22.910208","RA_OF_ASC_NODE":"283.1715","EPHEMERIS_TYPE":"0","CENTER_NAME":"EARTH","TLE_LINE2":"2 48658  53.0550 283.1715 0001405  72.3793 287.7349 15.06388656 64894","REF_FRAME":"TEME","MEAN_MOTION":"15.06388656","MEAN_MOTION_DDOT":"0.0000000000000","GP_ID":"209133190","LAUNCH_DATE":"2021-05-26","PERIOD":"95.593","TLE_LINE1":"1 48658U 21044W   22210.61832072 -.00000372  00000-0 -60773-5 0  9990","APOAPSIS":"548.221","ARG_OF_PERICENTER":"72.3793","OBJECT_ID":"2021-044W","OBJECT_TYPE":"PAYLOAD","SEMIMAJOR_AXIS":"6925.383","NORAD_CAT_ID":"48658","CLASSIFICATION_TYPE":"U","INCLINATION":"53.0550","COUNTRY_CODE":"US","ECCENTRICITY":"0.00014050","FILE":"3524848","PERIAPSIS":"546.275","REV_AT_EPOCH":"6489","MEAN_ELEMENT_THEORY":"SGP4","SITE":"AFETR","TIME_SYSTEM":"UTC","MEAN_ANOMALY":"287.7349","BSTAR":"-0.00000607730000","MEAN_MOTION_DOT":"-0.00000372"},{"DECAY_DATE":null,"ELEMENT_SET_NO":"999","OBJECT_NAME":"STARLINK-2717","EPOCH":"2022-07-29T14:45:03.455712","RCS_SIZE":"LARGE","EPHEMERIS_TYPE":"0","RA_OF_ASC_NODE":"283.1836","CENTER_NAME":"EARTH","TLE_LINE2":"2 48659  53.0553 283.1836 0001248  78.7445 281.3684 15.06403344 64895","REF_FRAME":"TEME","MEAN_MOTION_DDOT":"0.0000000000000","MEAN_MOTION":"15.06403344","GP_ID":"209132926","LAUNCH_DATE":"2021-05-26","APOAPSIS":"548.068","ARG_OF_PERICENTER":"78.7445","TLE_LINE1":"1 48659U 21044X   22210.61462333  .00000010  00000-0  19531-4 0  9992","PERIOD":"95.592","OBJECT_ID":"2021-044X","INCLINATION":"53.0553","CLASSIFICATION_TYPE":"U","OBJECT_TYPE":"PAYLOAD","NORAD_CAT_ID":"48659","SEMIMAJOR_AXIS":"6925.338","PERIAPSIS":"546.339","FILE":"3524848","ECCENTRICITY":"0.00012480","COUNTRY_CODE":"US","SITE":"AFETR","MEAN_ELEMENT_THEORY":"SGP4","REV_AT_EPOCH":"6489","BSTAR":"0.00001953100000","MEAN_MOTION_DOT":"0.00000010","MEAN_ANOMALY":"281.3684","TIME_SYSTEM":"UTC"},{"RCS_SIZE":"LARGE","EPOCH":"2022-07-29T14:39:45.956448","OBJECT_NAME":"STARLINK-2688","ELEMENT_SET_NO":"999","DECAY_DATE":null,"REF_FRAME":"TEME","TLE_LINE2":"2 48660  53.0547 283.2014 0001316  85.9325 274.1814 15.06393049 64897","CENTER_NAME":"EARTH","RA_OF_ASC_NODE":"283.2014","EPHEMERIS_TYPE":"0","OBJECT_ID":"2021-044Y","TLE_LINE1":"1 48660U 21044Y   22210.61094857  .00000864  00000-0  76876-4 0  9998","PERIOD":"95.593","ARG_OF_PERICENTER":"85.9325","APOAPSIS":"548.146","LAUNCH_DATE":"2021-05-26","GP_ID":"209131692","MEAN_MOTION":"15.06393049","MEAN_MOTION_DDOT":"0.0000000000000","TIME_SYSTEM":"UTC","MEAN_ANOMALY":"274.1814","MEAN_MOTION_DOT":"0.00000864","BSTAR":"0.00007687600000","REV_AT_EPOCH":"6489","MEAN_ELEMENT_THEORY":"SGP4","SITE":"AFETR","COUNTRY_CODE":"US","FILE":"3524848","PERIAPSIS":"546.323","ECCENTRICITY":"0.00013160","SEMIMAJOR_AXIS":"6925.370","OBJECT_TYPE":"PAYLOAD","NORAD_CAT_ID":"48660","CLASSIFICATION_TYPE":"U","INCLINATION":"53.0547"},{"MEAN_ANOMALY":"299.6935","TIME_SYSTEM":"UTC","BSTAR":"-0.00003297800000","MEAN_MOTION_DOT":"-0.00000773","REV_AT_EPOCH":"6507","SITE":"AFETR","MEAN_ELEMENT_THEORY":"SGP4","COUNTRY_CODE":"US","FILE":"3524848","PERIAPSIS":"546.036","ECCENTRICITY":"0.00017360","SEMIMAJOR_AXIS":"6925.373","OBJECT_TYPE":"PAYLOAD","NORAD_CAT_ID":"48661","INCLINATION":"53.0533","CLASSIFICATION_TYPE":"U","OBJECT_ID":"2021-044Z","PERIOD":"95.593","TLE_LINE1":"1 48661U 21044Z   22210.87725780 -.00000773  00000-0 -32978-4 0  9999","ARG_OF_PERICENTER":"60.4227","APOAPSIS":"548.440","LAUNCH_DATE":"2021-05-26","GP_ID":"209131942","MEAN_MOTION":"15.06391943","MEAN_MOTION_DDOT":"0.0000000000000","REF_FRAME":"TEME","TLE_LINE2":"2 48661  53.0533 271.9967 0001736  60.4227 299.6935 15.06391943 65077","CENTER_NAME":"EARTH","RA_OF_ASC_NODE":"271.9967","EPHEMERIS_TYPE":"0","RCS_SIZE":"LARGE","EPOCH":"2022-07-29T21:03:15.073920","OBJECT_NAME":"STARLINK-2708","ELEMENT_SET_NO":"999","DECAY_DATE":null}];
